GLOBALSTAR M067 [+]     
1 32263U 07048A   23261.75076527 -.00000078  00000+0  14418-3 0  9994
2 32263  51.9719 101.0526 0001674  67.9784  13.2491 12.40631777730361
GLOBALSTAR M070 [+]     
1 32264U 07048B   23261.74450487 -.00000084  00000+0  11283-3 0  9999
2 32264  51.9735 270.3445 0000630 120.9960  50.7909 12.62278278733165
GLOBALSTAR M066 [+]     
1 32265U 07048C   23261.90443322 -.00000055  00000+0  26945-3 0  9997
2 32265  51.9666 131.9327 0001015  20.8434 351.8996 12.62264610736396
GLOBALSTAR M068 [-]     
1 32266U 07048D   23261.83842076 -.00000107  00000+0 -18210-4 0  9995
2 32266  51.9880  85.0084 0001169 126.5677 338.4206 12.62766410737039
GLOBALSTAR M079 [+]     
1 37188U 10054A   23261.52170997 -.00000097  00000+0  37589-4 0  9993
2 37188  52.0029 280.9458 0000306  62.1343  60.3552 12.62267799595923
GLOBALSTAR M074 [+]     
1 37189U 10054B   23261.79625291 -.00000103  00000+0  67120-5 0  9998
2 37189  52.0006 279.5311 0000391  96.6541  74.1561 12.62269913596561
GLOBALSTAR M076 [+]     
1 37190U 10054C   23262.11060312 -.00000092  00000+0  68471-4 0  9990
2 37190  52.0022 278.6861 0000865  57.4160 343.2346 12.62261334596682
GLOBALSTAR M077 [+]     
1 37191U 10054D   23261.32826838 -.00000105  00000+0 -61744-5 0  9999
2 37191  52.0052 237.7401 0000432  77.2106  65.2008 12.62260704596598
